2025-284B               
1 66914U 25284B   25350.28554881  .00008068  00000+0  38445-3 0  9991
2 66914  80.4045 125.2713 0008179 234.9626 125.0834 15.18985981  1668
HULIANWANG DIGUI-105    
1 66915U 25285A   26002.93864642 -.00000053  00000+0  67805-4 0  9999
2 66915  50.0061  31.1462 0000200 291.1876  68.9005 13.97381148  3886
HULIANWANG DIGUI-106    
1 66916U 25285B   26003.00676642  .00000165  00000+0  22175-3 0  9993
2 66916  50.0072  30.8428 0000085 169.2302 190.8602 13.97477398  3899
HULIANWANG DIGUI-107    
1 66917U 25285C   26002.93332277 -.00000026  00000+0  87041-4 0  9999
2 66917  50.0038  31.1104 0000144  27.3632 332.7277 13.97519762  3889
HULIANWANG DIGUI-108    
1 66918U 25285D   26001.07274741 -.00000041  00000+0  74803-4 0  9994
2 66918  50.0155  38.6440 0006989 349.6929  10.3829 13.99203865  3627
HULIANWANG DIGUI-109    
1 66919U 25285E   26002.92890968 -.00000011  00000+0  96967-4 0  9997
2 66919  50.0084  31.1004 0000203 300.3388  59.7494 13.97831130  3882
HULIANWANG DIGUI-110    
1 66920U 25285F   26002.92663780  .00000067  00000+0  15067-3 0  9990
2 66920  50.0116  31.0982 0000163 301.8419  58.2468 13.98328866  3883
HULIANWANG DIGUI-111    
1 66921U 25285G   26002.99676318 -.00000171  00000+0 -15092-4 0  9996
2 66921  50.0131  30.8074 0000266 159.5635 200.5278 13.98404012  3892
HULIANWANG DIGUI-112    
1 66922U 25285H   26002.99545455  .00000099  00000+0  17334-3 0  9991
2 66922  50.0104  30.7894 0000101 222.6254 137.4640 13.98296787  3898
HULIANWANG DIGUI-113    
1 66923U 25285J   26002.99265221  .00000042  00000+0  13226-3 0  9996
2 66923  50.0104  30.7769 0000250 235.1664 124.9215 13.98754404  3893
CZ-8A R/B               
1 66924U 25285K   26002.47855760  .00000249  00000+0  14613-3 0  9993
2 66924  50.0091  27.8756 0119185 179.8374 180.2600 14.30513058  3890
STARLINK-35945          
1 66925U 25286A   26002.86372042  .00123578  00000+0  21945-2 0  9991
2 66925  53.1585 306.6853 0001786  49.6652 310.4513 15.49315742  5308
