CCSDS_OMM_VERS = 2.0
CREATION_DATE  = 
ORIGINATOR     = 

OBJECT_NAME    = 2025-284B
OBJECT_ID      = 2025-284B
CENTER_NAME    = EARTH
REF_FRAME      = TEME
TIME_SYSTEM    = UTC
MEAN_ELEMENT_THEORY = SGP/SGP4

EPOCH          = 2025-12-16T06:51:11.417184
MEAN_MOTION    = 15.18985981
ECCENTRICITY   = .00081793
INCLINATION    = 80.4045
RA_OF_ASC_NODE = 125.2713
ARG_OF_PERICENTER = 234.9626
MEAN_ANOMALY   = 125.0834

EPHEMERIS_TYPE = 0
CLASSIFICATION_TYPE = U
NORAD_CAT_ID   = 66914
ELEMENT_SET_NO = 999
REV_AT_EPOCH   = 166
BSTAR          = .38444995E-3
MEAN_MOTION_DOT = .8068E-4
MEAN_MOTION_DDOT = 0

CCSDS_OMM_VERS = 2.0
CREATION_DATE  = 
ORIGINATOR     = 

OBJECT_NAME    = HULIANWANG DIGUI-105
OBJECT_ID      = 2025-285A
CENTER_NAME    = EARTH
REF_FRAME      = TEME
TIME_SYSTEM    = UTC
MEAN_ELEMENT_THEORY = SGP/SGP4

EPOCH          = 2026-01-02T22:31:39.050688
MEAN_MOTION    = 13.97381148
ECCENTRICITY   = .00002003
INCLINATION    = 50.0061
RA_OF_ASC_NODE = 31.1462
ARG_OF_PERICENTER = 291.1876
MEAN_ANOMALY   = 68.9005

EPHEMERIS_TYPE = 0
CLASSIFICATION_TYPE = U
NORAD_CAT_ID   = 66915
ELEMENT_SET_NO = 999
REV_AT_EPOCH   = 388
BSTAR          = .67805132E-4
MEAN_MOTION_DOT = -.53E-6
MEAN_MOTION_DDOT = 0

CCSDS_OMM_VERS = 2.0
CREATION_DATE  = 
ORIGINATOR     = 

OBJECT_NAME    = HULIANWANG DIGUI-106
OBJECT_ID      = 2025-285B
CENTER_NAME    = EARTH
REF_FRAME      = TEME
TIME_SYSTEM    = UTC
MEAN_ELEMENT_THEORY = SGP/SGP4

EPOCH          = 2026-01-03T00:09:44.618688
MEAN_MOTION    = 13.97477398
ECCENTRICITY   = .00000851
INCLINATION    = 50.0072
RA_OF_ASC_NODE = 30.8428
ARG_OF_PERICENTER = 169.2302
MEAN_ANOMALY   = 190.8602

EPHEMERIS_TYPE = 0
CLASSIFICATION_TYPE = U
NORAD_CAT_ID   = 66916
ELEMENT_SET_NO = 999
REV_AT_EPOCH   = 389
BSTAR          = .22175395E-3
MEAN_MOTION_DOT = .165E-5
MEAN_MOTION_DDOT = 0

CCSDS_OMM_VERS = 2.0
CREATION_DATE  = 
ORIGINATOR     = 

OBJECT_NAME    = HULIANWANG DIGUI-107
OBJECT_ID      = 2025-285C
CENTER_NAME    = EARTH
REF_FRAME      = TEME
TIME_SYSTEM    = UTC
MEAN_ELEMENT_THEORY = SGP/SGP4

EPOCH          = 2026-01-02T22:23:59.087328
MEAN_MOTION    = 13.97519762
ECCENTRICITY   = .00001445
INCLINATION    = 50.0038
RA_OF_ASC_NODE = 31.1104
ARG_OF_PERICENTER = 27.3632
MEAN_ANOMALY   = 332.7277

EPHEMERIS_TYPE = 0
CLASSIFICATION_TYPE = U
NORAD_CAT_ID   = 66917
ELEMENT_SET_NO = 999
REV_AT_EPOCH   = 388
BSTAR          = .87041227E-4
MEAN_MOTION_DOT = -.26E-6
MEAN_MOTION_DDOT = 0

CCSDS_OMM_VERS = 2.0
CREATION_DATE  = 
ORIGINATOR     = 

OBJECT_NAME    = HULIANWANG DIGUI-108
OBJECT_ID      = 2025-285D
CENTER_NAME    = EARTH
REF_FRAME      = TEME
TIME_SYSTEM    = UTC
MEAN_ELEMENT_THEORY = SGP/SGP4

EPOCH          = 2026-01-01T01:44:45.376224
MEAN_MOTION    = 13.99203865
ECCENTRICITY   = .0006989
INCLINATION    = 50.0155
RA_OF_ASC_NODE = 38.6440
ARG_OF_PERICENTER = 349.6929
MEAN_ANOMALY   = 10.3829

EPHEMERIS_TYPE = 0
CLASSIFICATION_TYPE = U
NORAD_CAT_ID   = 66918
ELEMENT_SET_NO = 999
REV_AT_EPOCH   = 362
BSTAR          = .74803E-4
MEAN_MOTION_DOT = -.41E-6
MEAN_MOTION_DDOT = 0

CCSDS_OMM_VERS = 2.0
CREATION_DATE  = 
ORIGINATOR     = 

OBJECT_NAME    = HULIANWANG DIGUI-109
OBJECT_ID      = 2025-285E
CENTER_NAME    = EARTH
REF_FRAME      = TEME
TIME_SYSTEM    = UTC
MEAN_ELEMENT_THEORY = SGP/SGP4

EPOCH          = 2026-01-02T22:17:37.796352
MEAN_MOTION    = 13.97831130
ECCENTRICITY   = .00002036
INCLINATION    = 50.0084
RA_OF_ASC_NODE = 31.1004
ARG_OF_PERICENTER = 300.3388
MEAN_ANOMALY   = 59.7494

EPHEMERIS_TYPE = 0
CLASSIFICATION_TYPE = U
NORAD_CAT_ID   = 66919
ELEMENT_SET_NO = 999
REV_AT_EPOCH   = 388
BSTAR          = .96967209E-4
MEAN_MOTION_DOT = -.11E-6
MEAN_MOTION_DDOT = 0

CCSDS_OMM_VERS = 2.0
CREATION_DATE  = 
ORIGINATOR     = 

OBJECT_NAME    = HULIANWANG DIGUI-110
OBJECT_ID      = 2025-285F
CENTER_NAME    = EARTH
REF_FRAME      = TEME
TIME_SYSTEM    = UTC
MEAN_ELEMENT_THEORY = SGP/SGP4

EPOCH          = 2026-01-02T22:14:21.505920
MEAN_MOTION    = 13.98328866
ECCENTRICITY   = .0000163
INCLINATION    = 50.0116
RA_OF_ASC_NODE = 31.0982
ARG_OF_PERICENTER = 301.8419
MEAN_ANOMALY   = 58.2468

EPHEMERIS_TYPE = 0
CLASSIFICATION_TYPE = U
NORAD_CAT_ID   = 66920
ELEMENT_SET_NO = 999
REV_AT_EPOCH   = 388
BSTAR          = .15067407E-3
MEAN_MOTION_DOT = .67E-6
MEAN_MOTION_DDOT = 0

CCSDS_OMM_VERS = 2.0
CREATION_DATE  = 
ORIGINATOR     = 

OBJECT_NAME    = HULIANWANG DIGUI-111
OBJECT_ID      = 2025-285G
CENTER_NAME    = EARTH
REF_FRAME      = TEME
TIME_SYSTEM    = UTC
MEAN_ELEMENT_THEORY = SGP/SGP4

EPOCH          = 2026-01-02T23:55:20.338752
MEAN_MOTION    = 13.98404012
ECCENTRICITY   = .00002666
INCLINATION    = 50.0131
RA_OF_ASC_NODE = 30.8074
ARG_OF_PERICENTER = 159.5635
MEAN_ANOMALY   = 200.5278

EPHEMERIS_TYPE = 0
CLASSIFICATION_TYPE = U
NORAD_CAT_ID   = 66921
ELEMENT_SET_NO = 999
REV_AT_EPOCH   = 389
BSTAR          = -.1509224E-4
MEAN_MOTION_DOT = -.171E-5
MEAN_MOTION_DDOT = 0

CCSDS_OMM_VERS = 2.0
CREATION_DATE  = 
ORIGINATOR     = 

OBJECT_NAME    = HULIANWANG DIGUI-112
OBJECT_ID      = 2025-285H
CENTER_NAME    = EARTH
REF_FRAME      = TEME
TIME_SYSTEM    = UTC
MEAN_ELEMENT_THEORY = SGP/SGP4

EPOCH          = 2026-01-02T23:53:27.273120
MEAN_MOTION    = 13.98296787
ECCENTRICITY   = .00001012
INCLINATION    = 50.0104
RA_OF_ASC_NODE = 30.7894
ARG_OF_PERICENTER = 222.6254
MEAN_ANOMALY   = 137.4640

EPHEMERIS_TYPE = 0
CLASSIFICATION_TYPE = U
NORAD_CAT_ID   = 66922
ELEMENT_SET_NO = 999
REV_AT_EPOCH   = 389
BSTAR          = .17333988E-3
MEAN_MOTION_DOT = .99E-6
MEAN_MOTION_DDOT = 0

CCSDS_OMM_VERS = 2.0
CREATION_DATE  = 
ORIGINATOR     = 

OBJECT_NAME    = HULIANWANG DIGUI-113
OBJECT_ID      = 2025-285J
CENTER_NAME    = EARTH
REF_FRAME      = TEME
TIME_SYSTEM    = UTC
MEAN_ELEMENT_THEORY = SGP/SGP4

EPOCH          = 2026-01-02T23:49:25.150944
MEAN_MOTION    = 13.98754404
ECCENTRICITY   = .00002509
INCLINATION    = 50.0104
RA_OF_ASC_NODE = 30.7769
ARG_OF_PERICENTER = 235.1664
MEAN_ANOMALY   = 124.9215

EPHEMERIS_TYPE = 0
CLASSIFICATION_TYPE = U
NORAD_CAT_ID   = 66923
ELEMENT_SET_NO = 999
REV_AT_EPOCH   = 389
BSTAR          = .13225639E-3
MEAN_MOTION_DOT = .42E-6
MEAN_MOTION_DDOT = 0

CCSDS_OMM_VERS = 2.0
CREATION_DATE  = 
ORIGINATOR     = 

OBJECT_NAME    = CZ-8A R/B
OBJECT_ID      = 2025-285K
CENTER_NAME    = EARTH
REF_FRAME      = TEME
TIME_SYSTEM    = UTC
MEAN_ELEMENT_THEORY = SGP/SGP4

EPOCH          = 2026-01-02T11:29:07.376640
MEAN_MOTION    = 14.30513058
ECCENTRICITY   = .01191858
INCLINATION    = 50.0091
RA_OF_ASC_NODE = 27.8756
ARG_OF_PERICENTER = 179.8374
MEAN_ANOMALY   = 180.2600

EPHEMERIS_TYPE = 0
CLASSIFICATION_TYPE = U
NORAD_CAT_ID   = 66924
ELEMENT_SET_NO = 999
REV_AT_EPOCH   = 389
BSTAR          = .14612891E-3
MEAN_MOTION_DOT = .249E-5
MEAN_MOTION_DDOT = 0

CCSDS_OMM_VERS = 2.0
CREATION_DATE  = 
ORIGINATOR     = 

OBJECT_NAME    = STARLINK-35945
OBJECT_ID      = 2025-286A
CENTER_NAME    = EARTH
REF_FRAME      = TEME
TIME_SYSTEM    = UTC
MEAN_ELEMENT_THEORY = SGP/SGP4

EPOCH          = 2026-01-02T20:43:45.444288
MEAN_MOTION    = 15.49315742
ECCENTRICITY   = .00017861
INCLINATION    = 53.1585
RA_OF_ASC_NODE = 306.6853
ARG_OF_PERICENTER = 49.6652
MEAN_ANOMALY   = 310.4513

EPHEMERIS_TYPE = 0
CLASSIFICATION_TYPE = U
NORAD_CAT_ID   = 66925
ELEMENT_SET_NO = 999
REV_AT_EPOCH   = 530
BSTAR          = .21944659E-2
MEAN_MOTION_DOT = .123578E-2
MEAN_MOTION_DDOT = 0

